FENGYUN 1C DEB          
1 30028U 99025ND  17345.69871866  .00000163  00000-0  47941-4 0  9998
2 30028  98.3201  29.1035 0201204 177.7077 307.1449 14.45342215574299
